[{"OBJECT_NAME":"NUSHSAT1","OBJECT_ID":"2025-052B","EPOCH":"2026-03-09T15:31:41.225952","MEAN_MOTION":15.31903202,"ECCENTRICITY":0.0005501,"INCLINATION":97.4095,"RA_OF_ASC_NODE":325.7239,"ARG_OF_PERICENTER":84.7512,"MEAN_ANOMALY":275.4357,"EPHEMERIS_TYPE":0,"CLASSIFICATION_TYPE":"U","NORAD_CAT_ID":63211,"ELEMENT_SET_NO":999,"REV_AT_EPOCH":5488,"BSTAR":0.00074857,"MEAN_MOTION_DOT":0.00023034,"MEAN_MOTION_DDOT":0},{"OBJECT_NAME":"STARLINK-35489","OBJECT_ID":"2025-223D","EPOCH":"2026-03-09T21:42:49.604256","MEAN_MOTION":15.30190847,"ECCENTRICITY":0.00011573,"INCLINATION":53.1579,"RA_OF_ASC_NODE":293.5269,"ARG_OF_PERICENTER":96.0825,"MEAN_ANOMALY":264.0308,"EPHEMERIS_TYPE":0,"CLASSIFICATION_TYPE":"U","NORAD_CAT_ID":65857,"ELEMENT_SET_NO":999,"REV_AT_EPOCH":2423,"BSTAR":0.00066771566,"MEAN_MOTION_DOT":0.00019463,"MEAN_MOTION_DDOT":0}]
